NORAD_CAT_ID,OBJECT_NAME,OBJECT_TYPE,EPOCH,MEAN_MOTION,ECCENTRICITY,INCLINATION,RA_OF_ASC_NODE,ARG_OF_PERICENTER,MEAN_ANOMALY,BSTAR,MEAN_MOTION_DOT,MEAN_MOTION_DDOT,TLE_LINE0,TLE_LINE1,TLE_LINE2,SEMIMAJOR_AXIS,PERIOD,APOGEE,PERIGEE,DECAYED
52451.0,STARLINK-3870,PAYLOAD,2024-03-29 00:31:58,15.08844322,0.0001916,53.2185,19.4234,123.9924,236.1251,6.1098e-05,6.84e-06,0.0,0 STARLINK-3870,1 52451U 22049A   24089.02220157  .00000684  00000-0  61098-4 0  9992,2 52451  53.2185  19.4234 0001916 123.9924 236.1251 15.08844322104982,6917.867,95.437,541.058,538.407,0.0
52451.0,STARLINK-3870,PAYLOAD,2024-03-29 05:18:08,15.0882662,0.0002067,53.2186,18.5315,123.9058,236.213,0.00030711,4.601e-05,0.0,0 STARLINK-3870,1 52451U 22049A   24089.22092689  .00004601  00000-0  30711-3 0  9991,2 52451  53.2186  18.5315 0002067 123.9058 236.2130 15.08826620105012,6917.921,95.438,541.216,538.356,0.0
52451.0,STARLINK-3870,PAYLOAD,2024-03-29 19:36:35,15.08842493,0.000162,53.2187,15.8555,121.7867,238.3283,2.2935e-05,7.7e-07,0.0,0 STARLINK-3870,1 52451U 22049A   24089.81708200  .00000077  00000-0  22935-4 0  9992,2 52451  53.2187  15.8555 0001620 121.7867 238.3283 15.08842493105105,6917.873,95.437,540.858,538.617,0.0
52451.0,STARLINK-3870,PAYLOAD,2024-03-29 22:47:21,15.08846597,0.000166,53.2179,15.2611,126.08,234.0346,6.0248e-05,6.71e-06,0.0,0 STARLINK-3870,1 52451U 22049A   24089.94955782  .00000671  00000-0  60248-4 0  9994,2 52451  53.2179  15.2611 0001660 126.0800 234.0346 15.08846597104967,6917.86,95.437,540.874,538.577,0.0
52451.0,STARLINK-3870,PAYLOAD,2024-03-30 05:08:53,15.08858218,0.0001081,53.2177,14.0769,92.6475,267.4641,8.5577e-05,1.075e-05,0.0,0 STARLINK-3870,1 52451U 22049A   24090.21450980  .00001075  00000-0  85577-4 0  9997,2 52451  53.2177  14.0769 0001081  92.6475 267.4641 15.08858218105163,6917.825,95.436,540.438,538.942,0.0
52451.0,STARLINK-3870,PAYLOAD,2024-03-30 11:30:26,15.08850112,9.03e-05,53.2164,12.8855,88.1733,271.9363,8.5151e-05,1.068e-05,0.0,0 STARLINK-3870,1 52451U 22049A   24090.47947247  .00001068  00000-0  85151-4 0  9992,2 52451  53.2164  12.8855 0000903  88.1733 271.9363 15.08850112105201,6917.849,95.437,540.339,539.09,0.0
52451.0,STARLINK-3870,PAYLOAD,2024-03-30 22:38:09,15.0883703,0.0001561,53.2206,10.8089,105.033,255.0835,-6.2957e-05,-1.29e-05,0.0,0 STARLINK-3870,1 52451U 22049A   24090.94316930 -.00001290  00000-0 -62957-4 0  9991,2 52451  53.2206  10.8089 0001561 105.0330 255.0835 15.08837030105119,6917.889,95.438,540.834,538.675,0.0
52451.0,STARLINK-3870,PAYLOAD,2024-03-31 04:59:42,15.08837454,0.0001481,53.2201,9.6214,111.0888,249.0262,-2.209e-05,-6.39e-06,0.0,0 STARLINK-3870,1 52451U 22049A   24091.20812930 -.00000639  00000-0 -22090-4 0  9992,2 52451  53.2201   9.6214 0001481 111.0888 249.0262 15.08837454105315,6917.888,95.438,540.778,538.729,0.0
52451.0,STARLINK-3870,PAYLOAD,2024-03-31 11:21:14,15.08845668,0.0001489,53.2206,8.4317,77.7549,282.361,-2.7708e-05,-7.29e-06,0.0,0 STARLINK-3870,1 52451U 22049A   24091.47308308 -.00000729  00000-0 -27708-4 0  9991,2 52451  53.2206   8.4317 0001489  77.7549 282.3610 15.08845668105190,6917.863,95.437,540.758,538.698,0.0
52451.0,STARLINK-3870,PAYLOAD,2024-03-31 22:28:55,15.08849517,0.0001261,53.2197,6.3492,96.7612,263.3524,0.00013286,1.828e-05,0.0,0 STARLINK-3870,1 52451U 22049A   24091.93675789  .00001828  00000-0  13286-3 0  9996,2 52451  53.2197   6.3492 0001261  96.7612 263.3524 15.08849517105268,6917.851,95.437,540.589,538.844,0.0
52451.0,STARLINK-3870,PAYLOAD,2024-04-01 03:15:05,15.08855585,0.0001348,53.2187,5.4573,93.7137,266.4009,0.00027001,4.014e-05,0.0,0 STARLINK-3870,1 52451U 22049A   24092.13547523  .00004014  00000-0  27001-3 0  9993,2 52451  53.2187   5.4573 0001348  93.7137 266.4009 15.08855585105457,6917.833,95.437,540.63,538.765,0.0
52451.0,STARLINK-3870,PAYLOAD,2024-04-01 11:12:00,15.08848585,0.0001645,53.22,3.9702,82.3418,277.7761,0.00018749,2.698e-05,0.0,0 STARLINK-3870,1 52451U 22049A   24092.46667814  .00002698  00000-0  18749-3 0  9990,2 52451  53.2200   3.9702 0001645  82.3418 277.7761 15.08848585105504,6917.854,95.437,540.857,538.581,0.0
52451.0,STARLINK-3870,PAYLOAD,2024-04-01 19:08:57,15.08830629,0.000129,53.2182,2.4838,85.703,274.4109,-3.8868e-05,-9.06e-06,0.0,0 STARLINK-3870,1 52451U 22049A   24092.79788604 -.00000906  00000-0 -38868-4 0  9994,2 52451  53.2182   2.4838 0001290  85.7030 274.4109 15.08830629105555,6917.909,95.438,540.666,538.882,0.0
52451.0,STARLINK-3870,PAYLOAD,2024-04-02 03:05:52,15.08846321,0.000137,53.2175,0.9964,83.7112,276.4036,0.00027678,4.121e-05,0.0,0 STARLINK-3870,1 52451U 22049A   24093.12908095  .00004121  00000-0  27678-3 0  9997,2 52451  53.2175   0.9964 0001370  83.7112 276.4036 15.08846321105601,6917.861,95.437,540.674,538.778,0.0
52451.0,STARLINK-3870,PAYLOAD,2024-04-02 11:02:48,15.08837738,0.0001333,53.2171,359.5091,82.6713,277.443,0.00054502,8.396e-05,0.0,0 STARLINK-3870,1 52451U 22049A   24093.46028471  .00008396  00000-0  54502-3 0  9999,2 52451  53.2171 359.5091 0001333  82.6713 277.4430 15.08837738105651,6917.887,95.438,540.674,538.83,0.0
52451.0,STARLINK-3870,PAYLOAD,2024-04-03 10:53:36,15.0883832,0.0001289,53.217,355.0462,91.9516,268.1623,0.00037696,5.716e-05,0.0,0 STARLINK-3870,1 52451U 22049A   24094.45388896  .00005716  00000-0  37696-3 0  9997,2 52451  53.2170 355.0462 0001289  91.9516 268.1623 15.08838320105803,6917.886,95.438,540.642,538.859,0.0
52451.0,STARLINK-3870,PAYLOAD,2024-04-03 17:15:08,15.0883894,0.0001309,53.2165,353.8578,88.442,271.6722,0.0002828,4.216e-05,0.0,0 STARLINK-3870,1 52451U 22049A   24094.71885002  .00004216  00000-0  28280-3 0  9990,2 52451  53.2165 353.8578 0001309  88.4420 271.6722 15.08838940105682,6917.884,95.438,540.654,538.843,0.0
52451.0,STARLINK-3870,PAYLOAD,2024-04-04 10:44:23,15.08844736,0.0001333,53.2169,350.5868,89.16,270.9545,0.00031189,4.68e-05,0.0,0 STARLINK-3870,1 52451U 22049A   24095.44748957  .00004680  00000-0  31189-3 0  9995,2 52451  53.2169 350.5868 0001333  89.1600 270.9545 15.08844736105794,6917.866,95.437,540.653,538.809,0.0
52451.0,STARLINK-3870,PAYLOAD,2024-04-04 20:16:41,15.08846027,0.0001344,53.2171,348.8022,93.8447,266.2699,0.00036164,5.473e-05,0.0,0 STARLINK-3870,1 52451U 22049A   24095.84492917  .00005473  00000-0  36164-3 0  9990,2 52451  53.2171 348.8022 0001344  93.8447 266.2699 15.08846027106011,6917.862,95.437,540.657,538.797,0.0
52451.0,STARLINK-3870,PAYLOAD,2024-04-04 23:27:27,15.08851609,0.0001489,53.2191,348.2075,89.0459,271.0704,0.00034468,5.204e-05,0.0,0 STARLINK-3870,1 52451U 22049A   24095.97740646  .00005204  00000-0  34468-3 0  9996,2 52451  53.2191 348.2075 0001489  89.0459 271.0704 15.08851609105871,6917.845,95.437,540.74,538.68,0.0
52451.0,STARLINK-3870,PAYLOAD,2024-04-05 02:38:13,15.08855197,0.0001531,53.2193,347.6128,89.1866,270.9302,0.00028231,4.21e-05,0.0,0 STARLINK-3870,1 52451U 22049A   24096.10988415  .00004210  00000-0  28231-3 0  9997,2 52451  53.2193 347.6128 0001531  89.1866 270.9302 15.08855197105896,6917.834,95.437,540.758,538.64,0.0
52451.0,STARLINK-3870,PAYLOAD,2024-04-05 21:42:51,15.088512,0.0001425,53.2189,344.0453,98.3667,261.7486,0.00022052,3.224e-05,0.0,0 STARLINK-3870,1 52451U 22049A   24096.90476282  .00003224  00000-0  22052-3 0  9998,2 52451  53.2189 344.0453 0001425  98.3667 261.7486 15.08851200106013,6917.846,95.437,540.697,538.725,0.0
52451.0,STARLINK-3870,PAYLOAD,2024-04-06 02:29:00,15.08854786,0.000137,53.219,343.1535,87.1124,273.0025,0.00028495,4.252e-05,0.0,0 STARLINK-3870,1 52451U 22049A   24097.10348095  .00004252  00000-0  28495-3 0  9990,2 52451  53.2190 343.1535 0001370  87.1124 273.0025 15.08854786106207,6917.835,95.437,540.648,538.752,0.0
52451.0,STARLINK-3870,PAYLOAD,2024-04-06 08:50:33,15.08846919,0.0001373,53.2181,341.9621,76.5457,283.5688,0.00011666,1.57e-05,0.0,0 STARLINK-3870,1 52451U 22049A   24097.36844274  .00001570  00000-0  11666-3 0  9990,2 52451  53.2181 341.9621 0001373  76.5457 283.5688 15.08846919106247,6917.859,95.437,540.674,538.774,0.0
52451.0,STARLINK-3870,PAYLOAD,2024-04-06 23:09:02,15.08831221,0.000143,53.2191,339.2902,90.5733,269.5423,-0.00016282,-2.878e-05,0.0,0 STARLINK-3870,1 52451U 22049A   24097.96460962 -.00002878  00000-0 -16282-3 0  9997,2 52451  53.2191 339.2902 0001430  90.5733 269.5423 15.08831221106170,6917.907,95.438,540.761,538.783,0.0
52451.0,STARLINK-3870,PAYLOAD,2024-04-07 08:41:21,15.08833394,0.0001369,53.2187,337.5076,95.2242,264.8906,-4.4816e-05,-1.001e-05,0.0,0 STARLINK-3870,1 52451U 22049A   24098.36205081 -.00001001  00000-0 -44816-4 0  9993,2 52451  53.2187 337.5076 0001369  95.2242 264.8906 15.08833394106230,6917.901,95.438,540.713,538.819,0.0
52451.0,STARLINK-3870,PAYLOAD,2024-04-07 21:24:26,15.08844512,0.0001272,53.218,335.1282,96.5133,263.6004,0.00021853,3.192e-05,0.0,0 STARLINK-3870,1 52451U 22049A   24098.89196909  .00003192  00000-0  21853-3 0  9995,2 52451  53.2180 335.1282 0001272  96.5133 263.6004 15.08844512106478,6917.867,95.437,540.612,538.852,0.0
52451.0,STARLINK-3870,PAYLOAD,2024-04-07 22:59:49,15.08845369,0.0001268,53.2181,334.8302,100.2434,259.8702,0.00023626,3.475e-05,0.0,0 STARLINK-3870,1 52451U 22049A   24098.95820872  .00003475  00000-0  23626-3 0  9999,2 52451  53.2181 334.8302 0001268 100.2434 259.8702 15.08845369106327,6917.864,95.437,540.606,538.852,0.0
52451.0,STARLINK-3870,PAYLOAD,2024-04-08 08:32:08,15.08844829,0.0001098,53.2168,333.0445,85.0534,275.0583,0.00035887,5.429e-05,0.0,0 STARLINK-3870,1 52451U 22049A   24099.35565062  .00005429  00000-0  35887-3 0  9994,2 52451  53.2168 333.0445 0001098  85.0534 275.0583 15.08844829106386,6917.866,95.437,540.49,538.971,0.0
52451.0,STARLINK-3870,PAYLOAD,2024-04-08 22:50:36,15.08844165,0.0001162,53.217,330.3679,82.6882,277.4243,0.00020822,3.028e-05,0.0,0 STARLINK-3870,1 52451U 22049A   24099.95181088  .00003028  00000-0  20822-3 0  9998,2 52451  53.2170 330.3679 0001162  82.6882 277.4243 15.08844165106471,6917.868,95.437,540.537,538.929,0.0
